{
  "type": "FeatureCollection",
  "features": [
    {
      "type": "Feature",
      "properties": {
        "norad_id": 66587,
        "name": "CZ-3B R/B",
        "group": "last-30-days",
        "lat": 31.929197821803065,
        "lon": -159.92137506649243,
        "alt_km": 39093.46113057552,
        "timestamp": "2025-12-10T11:33:52.172569+00:00",
        "meta_object_name": "CZ-3B R/B",
        "meta_object_id": "2025-269B",
        "meta_epoch": "2025-12-08T20:16:41.011104",
        "meta_mean_motion": 2.02868797,
        "meta_eccentricity": 0.7519772,
        "meta_inclination": 51.3469,
        "meta_ra_of_asc_node": 170.5472,
        "meta_arg_of_pericenter": 228.0184,
        "meta_mean_anomaly": 37.9661,
        "meta_ephemeris_type": 0,
        "meta_classification_type": "U",
        "meta_norad_cat_id": 66587,
        "meta_element_set_no": 999,
        "meta_rev_at_epoch": 37,
        "meta_bstar": 0.0012608,
        "meta_mean_motion_dot": 0.00050405,
        "meta_mean_motion_ddot": 4.221e-07,
        "tle_line1": "1 66587U 25269B   25342.84491911  .00050405  42210-6  12608-2 0  9997",
        "tle_line2": "2 66587  51.3469 170.5472 7519772 228.0184  37.9661  2.02868797   372"
      },
      "geometry": {
        "type": "Point",
        "coordinates": [
          -159.92137506649243,
          31.929197821803065
        ]
      }
    },
    {
      "type": "Feature",
      "properties": {
        "norad_id": 66588,
        "name": "STARLINK-36076",
        "group": "last-30-days",
        "lat": 5.504803913704293,
        "lon": -148.12049614961043,
        "alt_km": 411.4478962400026,
        "timestamp": "2025-12-10T11:33:52.172585+00:00",
        "meta_object_name": "STARLINK-36076",
        "meta_object_id": "2025-270A",
        "meta_epoch": "2025-12-10T04:00:01.998720",
        "meta_mean_motion": 15.52901539,
        "meta_eccentricity": 0.0001672,
        "meta_inclination": 42.9998,
        "meta_ra_of_asc_node": 207.7917,
        "meta_arg_of_pericenter": 265.0805,
        "meta_mean_anomaly": 139.7969,
        "meta_ephemeris_type": 0,
        "meta_classification_type": "U",
        "meta_norad_cat_id": 66588,
        "meta_element_set_no": 999,
        "meta_rev_at_epoch": 398,
        "meta_bstar": -0.033295,
        "meta_mean_motion_dot": -0.01875149,
        "meta_mean_motion_ddot": 0,
        "tle_line1": "1 66588U 25270A   25344.16668980 -.01875149  00000+0 -33295-1 0  9990",
        "tle_line2": "2 66588  42.9998 207.7917 0001672 265.0805 139.7969 15.52901539  3985"
      },
      "geometry": {
        "type": "Point",
        "coordinates": [
          -148.12049614961043,
          5.504803913704293
        ]
      }
    },
    {
      "type": "Feature",
      "properties": {
        "norad_id": 66589,
        "name": "STARLINK-35447",
        "group": "last-30-days",
        "lat": 8.094999653262006,
        "lon": -145.28691540301352,
        "alt_km": 411.06971319218064,
        "timestamp": "2025-12-10T11:33:52.172595+00:00",
        "meta_object_name": "STARLINK-35447",
        "meta_object_id": "2025-270B",
        "meta_epoch": "2025-12-10T04:00:01.998720",
        "meta_mean_motion": 15.52904552,
        "meta_eccentricity": 0.0001689,
        "meta_inclination": 42.9995,
        "meta_ra_of_asc_node": 207.7818,
        "meta_arg_of_pericenter": 270.6555,
        "meta_mean_anomaly": 138.0575,
        "meta_ephemeris_type": 0,
        "meta_classification_type": "U",
        "meta_norad_cat_id": 66589,
        "meta_element_set_no": 999,
        "meta_rev_at_epoch": 409,
        "meta_bstar": -0.033719,
        "meta_mean_motion_dot": -0.01930598,
        "meta_mean_motion_ddot": 0,
        "tle_line1": "1 66589U 25270B   25344.16668980 -.01930598  00000+0 -33719-1 0  9992",
        "tle_line2": "2 66589  42.9995 207.7818 0001689 270.6555 138.0575 15.52904552  4091"
      },
      "geometry": {
        "type": "Point",
        "coordinates": [
          -145.28691540301352,
          8.094999653262006
        ]
      }
    },
    {
      "type": "Feature",
      "properties": {
        "norad_id": 66590,
        "name": "STARLINK-35429",
        "group": "last-30-days",
        "lat": 6.799389355782012,
        "lon": -146.71023037899516,
        "alt_km": 411.3590316297632,
        "timestamp": "2025-12-10T11:33:52.172605+00:00",
        "meta_object_name": "STARLINK-35429",
        "meta_object_id": "2025-270C",
        "meta_epoch": "2025-12-10T04:00:01.998720",
        "meta_mean_motion": 15.52905212,
        "meta_eccentricity": 0.00018,
        "meta_inclination": 42.9997,
        "meta_ra_of_asc_node": 207.7869,
        "meta_arg_of_pericenter": 266.1493,
        "meta_mean_anomaly": 140.6473,
        "meta_ephemeris_type": 0,
        "meta_classification_type": "U",
        "meta_norad_cat_id": 66590,
        "meta_element_set_no": 999,
        "meta_rev_at_epoch": 409,
        "meta_bstar": -0.033907,
        "meta_mean_motion_dot": -0.01940345,
        "meta_mean_motion_ddot": 0,
        "tle_line1": "1 66590U 25270C   25344.16668980 -.01940345  00000+0 -33907-1 0  9994",
        "tle_line2": "2 66590  42.9997 207.7869 0001800 266.1493 140.6473 15.52905212  4097"
      },
      "geometry": {
        "type": "Point",
        "coordinates": [
          -146.71023037899516,
          6.799389355782012
        ]
      }
    },
    {
      "type": "Feature",
      "properties": {
        "norad_id": 66591,
        "name": "STARLINK-36058",
        "group": "last-30-days",
        "lat": 9.385764587962276,
        "lon": -143.85396497995808,
        "alt_km": 410.9875605202342,
        "timestamp": "2025-12-10T11:33:52.172614+00:00",
        "meta_object_name": "STARLINK-36058",
        "meta_object_id": "2025-270D",
        "meta_epoch": "2025-12-10T04:00:01.998720",
        "meta_mean_motion": 15.52906037,
        "meta_eccentricity": 0.0001708,
        "meta_inclination": 42.9995,
        "meta_ra_of_asc_node": 207.777,
        "meta_arg_of_pericenter": 268.6242,
        "meta_mean_anomaly": 142.009,
        "meta_ephemeris_type": 0,
        "meta_classification_type": "U",
        "meta_norad_cat_id": 66591,
        "meta_element_set_no": 999,
        "meta_rev_at_epoch": 398,
        "meta_bstar": -0.033848,
        "meta_mean_motion_dot": -0.01937347,
        "meta_mean_motion_ddot": 0,
        "tle_line1": "1 66591U 25270D   25344.16668980 -.01937347  00000+0 -33848-1 0  9997",
        "tle_line2": "2 66591  42.9995 207.7770 0001708 268.6242 142.0090 15.52906037  3987"
      },
      "geometry": {
        "type": "Point",
        "coordinates": [
          -143.85396497995808,
          9.385764587962276
        ]
      }
    },
    {
      "type": "Feature",
      "properties": {
        "norad_id": 66592,
        "name": "STARLINK-36066",
        "group": "last-30-days",
        "lat": 10.668335393332285,
        "lon": -142.41287946328444,
        "alt_km": 410.80291330318323,
        "timestamp": "2025-12-10T11:33:52.172625+00:00",
        "meta_object_name": "STARLINK-36066",
        "meta_object_id": "2025-270E",
        "meta_epoch": "2025-12-10T04:00:01.998720",
        "meta_mean_motion": 15.52903369,
        "meta_eccentricity": 0.0001721,
        "meta_inclination": 42.9993,
        "meta_ra_of_asc_node": 207.7722,
        "meta_arg_of_pericenter": 269.9314,
        "meta_mean_anomaly": 142.6171,
        "meta_ephemeris_type": 0,
        "meta_classification_type": "U",
        "meta_norad_cat_id": 66592,
        "meta_element_set_no": 999,
        "meta_rev_at_epoch": 388,
        "meta_bstar": -0.033717,
        "meta_mean_motion_dot": -0.01930444,
        "meta_mean_motion_ddot": 0,
        "tle_line1": "1 66592U 25270E   25344.16668980 -.01930444  00000+0 -33717-1 0  9994",
        "tle_line2": "2 66592  42.9993 207.7722 0001721 269.9314 142.6171 15.52903369  3882"
      },
      "geometry": {
        "type": "Point",
        "coordinates": [
          -142.41287946328444,
          10.668335393332285
        ]
      }
    },
    {
      "type": "Feature",
      "properties": {
        "norad_id": 66593,
        "name": "STARLINK-36031",
        "group": "last-30-days",
        "lat": 11.944046718782138,
        "lon": -140.95967766228998,
        "alt_km": 410.72912036475736,
        "timestamp": "2025-12-10T11:33:52.172634+00:00",
        "meta_object_name": "STARLINK-36031",
        "meta_object_id": "2025-270F",
        "meta_epoch": "2025-12-10T04:00:01.998720",
        "meta_mean_motion": 15.52892303,
        "meta_eccentricity": 0.0001546,
        "meta_inclination": 42.9994,
        "meta_ra_of_asc_node": 207.7676,
        "meta_arg_of_pericenter": 263.944,
        "meta_mean_anomaly": 150.5243,
        "meta_ephemeris_type": 0,
        "meta_classification_type": "U",
        "meta_norad_cat_id": 66593,
        "meta_element_set_no": 999,
        "meta_rev_at_epoch": 398,
        "meta_bstar": -0.033245,
        "meta_mean_motion_dot": -0.01872015,
        "meta_mean_motion_ddot": 0,
        "tle_line1": "1 66593U 25270F   25344.16668980 -.01872015  00000+0 -33245-1 0  9990",
        "tle_line2": "2 66593  42.9994 207.7676 0001546 263.9440 150.5243 15.52892303  3985"
      },
      "geometry": {
        "type": "Point",
        "coordinates": [
          -140.95967766228998,
          11.944046718782138
        ]
      }
    }
  ]
}